%YAML 1.1
%TAG !u! tag:unity3d.com,2011:
--- !u!114 &11400000
MonoBehaviour:
  m_ObjectHideFlags: 0
  m_CorrespondingSourceObject: {fileID: 0}
  m_PrefabInstance: {fileID: 0}
  m_PrefabAsset: {fileID: 0}
  m_GameObject: {fileID: 0}
  m_Enabled: 1
  m_EditorHideFlags: 0
  m_Script: {fileID: 11500000, guid: 3c3c350472192c149822725a54cc75ed, type: 3}
  m_Name: Io
  m_EditorClassIdentifier: 
  mass: 8.931983e+22
  diameter: 3643200
  orbit:
    semimajorAxis: 421800000
    eccentricity: 0.004
    inclination: 0
    lonAscNode: 0
    argPeriapsis: 0.8569566627
    trueAnomaly: 5.771386752
    meanAnomaly: 0
    anomaly: 0
    semiminorAxis: 0
    meanMotion: 0
    semiLatusRectum: 0
    timeToPeriapsis: 0
    period: 0
  material: {fileID: 2100000, guid: 2c14bd076e2da0b4e839153e3078e571, type: 2}
  bodiesOnOrbit: []
  type: 2
